CCSDS_OMM_VERS = 2.0
CREATION_DATE  = 
ORIGINATOR     = 

OBJECT_NAME    = ASTRO-H (HITOMI)
OBJECT_ID      = 2016-012A
CENTER_NAME    = EARTH
REF_FRAME      = TEME
TIME_SYSTEM    = UTC
MEAN_ELEMENT_THEORY = SGP/SGP4

EPOCH          = 2026-02-24T09:54:50.761728
MEAN_MOTION    = 15.09896449
ECCENTRICITY   = .00099381
INCLINATION    = 30.9995
RA_OF_ASC_NODE = 82.2163
ARG_OF_PERICENTER = 199.3401
MEAN_ANOMALY   = 160.6861

EPHEMERIS_TYPE = 0
CLASSIFICATION_TYPE = U
NORAD_CAT_ID   = 41337
ELEMENT_SET_NO = 999
REV_AT_EPOCH   = 55022
BSTAR          = .18980235E-3
MEAN_MOTION_DOT = .3249E-4
MEAN_MOTION_DDOT = 0

CCSDS_OMM_VERS = 2.0
CREATION_DATE  = 
ORIGINATOR     = 

OBJECT_NAME    = HXMT (HUIYAN)
OBJECT_ID      = 2017-034A
CENTER_NAME    = EARTH
REF_FRAME      = TEME
TIME_SYSTEM    = UTC
MEAN_ELEMENT_THEORY = SGP/SGP4

EPOCH          = 2026-02-24T13:06:53.821728
MEAN_MOTION    = 15.17274945
ECCENTRICITY   = .00312434
INCLINATION    = 43.0139
RA_OF_ASC_NODE = 89.7326
ARG_OF_PERICENTER = 153.6076
MEAN_ANOMALY   = 206.6371

EPHEMERIS_TYPE = 0
CLASSIFICATION_TYPE = U
NORAD_CAT_ID   = 42758
ELEMENT_SET_NO = 999
REV_AT_EPOCH   = 48054
BSTAR          = .2479193E-3
MEAN_MOTION_DOT = .4849E-4
MEAN_MOTION_DDOT = 0

CCSDS_OMM_VERS = 2.0
CREATION_DATE  = 
ORIGINATOR     = 

OBJECT_NAME    = CZ-2C R/B
OBJECT_ID      = 2018-054D
CENTER_NAME    = EARTH
REF_FRAME      = TEME
TIME_SYSTEM    = UTC
MEAN_ELEMENT_THEORY = SGP/SGP4

EPOCH          = 2026-02-24T07:36:33.171840
MEAN_MOTION    = 16.15827336
ECCENTRICITY   = .0010779
INCLINATION    = 35.1263
RA_OF_ASC_NODE = 32.0350
ARG_OF_PERICENTER = 188.7896
MEAN_ANOMALY   = 171.2663

EPHEMERIS_TYPE = 0
CLASSIFICATION_TYPE = U
NORAD_CAT_ID   = 43521
ELEMENT_SET_NO = 999
REV_AT_EPOCH   = 42675
BSTAR          = .77449565E-3
MEAN_MOTION_DOT = .1151382E-1
MEAN_MOTION_DDOT = .89937501E-3

CCSDS_OMM_VERS = 2.0
CREATION_DATE  = 
ORIGINATOR     = 

OBJECT_NAME    = SAOCOM 1A
OBJECT_ID      = 2018-076A
CENTER_NAME    = EARTH
REF_FRAME      = TEME
TIME_SYSTEM    = UTC
MEAN_ELEMENT_THEORY = SGP/SGP4

EPOCH          = 2026-02-24T14:18:11.719008
MEAN_MOTION    = 14.82151211
ECCENTRICITY   = .00012768
INCLINATION    = 97.8883
RA_OF_ASC_NODE = 243.9534
ARG_OF_PERICENTER = 79.5959
MEAN_ANOMALY   = 280.5398

EPHEMERIS_TYPE = 0
CLASSIFICATION_TYPE = U
NORAD_CAT_ID   = 43641
ELEMENT_SET_NO = 999
REV_AT_EPOCH   = 39942
BSTAR          = .38351423E-4
MEAN_MOTION_DOT = .253E-5
MEAN_MOTION_DDOT = 0

CCSDS_OMM_VERS = 2.0
CREATION_DATE  = 
ORIGINATOR     = 

OBJECT_NAME    = H-2A R/B
OBJECT_ID      = 2018-084L
CENTER_NAME    = EARTH
REF_FRAME      = TEME
TIME_SYSTEM    = UTC
MEAN_ELEMENT_THEORY = SGP/SGP4

EPOCH          = 2026-02-24T13:14:13.696224
MEAN_MOTION    = 15.40717121
ECCENTRICITY   = .00262127
INCLINATION    = 98.8751
RA_OF_ASC_NODE = 270.1374
ARG_OF_PERICENTER = 69.4250
MEAN_ANOMALY   = 290.9801

EPHEMERIS_TYPE = 0
CLASSIFICATION_TYPE = U
NORAD_CAT_ID   = 43682
ELEMENT_SET_NO = 999
REV_AT_EPOCH   = 40375
BSTAR          = .45273247E-3
MEAN_MOTION_DOT = .18631E-3
MEAN_MOTION_DDOT = 0

CCSDS_OMM_VERS = 2.0
CREATION_DATE  = 
ORIGINATOR     = 

OBJECT_NAME    = SAOCOM 1B
OBJECT_ID      = 2020-059A
CENTER_NAME    = EARTH
REF_FRAME      = TEME
TIME_SYSTEM    = UTC
MEAN_ELEMENT_THEORY = SGP/SGP4

EPOCH          = 2026-02-24T15:03:10.842912
MEAN_MOTION    = 14.82158351
ECCENTRICITY   = .00014798
INCLINATION    = 97.8883
RA_OF_ASC_NODE = 243.0820
ARG_OF_PERICENTER = 82.8238
MEAN_ANOMALY   = 277.3144

EPHEMERIS_TYPE = 0
CLASSIFICATION_TYPE = U
NORAD_CAT_ID   = 46265
ELEMENT_SET_NO = 999
REV_AT_EPOCH   = 29681
BSTAR          = .1193067E-3
MEAN_MOTION_DOT = .898E-5
MEAN_MOTION_DDOT = 0

CCSDS_OMM_VERS = 2.0
CREATION_DATE  = 
ORIGINATOR     = 

OBJECT_NAME    = CSS (TIANHE)
OBJECT_ID      = 2021-035A
CENTER_NAME    = EARTH
REF_FRAME      = TEME
TIME_SYSTEM    = UTC
MEAN_ELEMENT_THEORY = SGP/SGP4

EPOCH          = 2026-02-24T08:07:25.889376
MEAN_MOTION    = 15.60074012
ECCENTRICITY   = .00054742
INCLINATION    = 41.4667
RA_OF_ASC_NODE = 289.3617
ARG_OF_PERICENTER = 185.8105
MEAN_ANOMALY   = 174.2671

EPHEMERIS_TYPE = 0
CLASSIFICATION_TYPE = U
NORAD_CAT_ID   = 48274
ELEMENT_SET_NO = 999
REV_AT_EPOCH   = 27552
BSTAR          = .21704682E-3
MEAN_MOTION_DOT = .17817E-3
MEAN_MOTION_DDOT = 0

CCSDS_OMM_VERS = 2.0
CREATION_DATE  = 
ORIGINATOR     = 

OBJECT_NAME    = COSMOS 2550
OBJECT_ID      = 2021-056A
CENTER_NAME    = EARTH
REF_FRAME      = TEME
TIME_SYSTEM    = UTC
MEAN_ELEMENT_THEORY = SGP/SGP4

EPOCH          = 2026-02-21T20:49:13.046304
MEAN_MOTION    = 15.33831385
ECCENTRICITY   = .0008383
INCLINATION    = 67.1417
RA_OF_ASC_NODE = 88.7921
ARG_OF_PERICENTER = 269.2454
MEAN_ANOMALY   = 90.7739

EPHEMERIS_TYPE = 0
CLASSIFICATION_TYPE = U
NORAD_CAT_ID   = 48865
ELEMENT_SET_NO = 999
REV_AT_EPOCH   = 26103
BSTAR          = .98957E-7
MEAN_MOTION_DOT = -.189E-5
MEAN_MOTION_DDOT = 0

CCSDS_OMM_VERS = 2.0
CREATION_DATE  = 
ORIGINATOR     = 

OBJECT_NAME    = CZ-2C R/B
OBJECT_ID      = 2022-058K
CENTER_NAME    = EARTH
REF_FRAME      = TEME
TIME_SYSTEM    = UTC
MEAN_ELEMENT_THEORY = SGP/SGP4

EPOCH          = 2026-02-24T07:52:14.764224
MEAN_MOTION    = 15.53231999
ECCENTRICITY   = .00421136
INCLINATION    = 50.1897
RA_OF_ASC_NODE = 26.9679
ARG_OF_PERICENTER = 143.8974
MEAN_ANOMALY   = 216.4853

EPHEMERIS_TYPE = 0
CLASSIFICATION_TYPE = U
NORAD_CAT_ID   = 52794
ELEMENT_SET_NO = 999
REV_AT_EPOCH   = 20805
BSTAR          = .54143956E-3
MEAN_MOTION_DOT = .35751E-3
MEAN_MOTION_DDOT = 0

CCSDS_OMM_VERS = 2.0
CREATION_DATE  = 
ORIGINATOR     = 

OBJECT_NAME    = CZ-2C R/B
OBJECT_ID      = 2022-132E
CENTER_NAME    = EARTH
REF_FRAME      = TEME
TIME_SYSTEM    = UTC
MEAN_ELEMENT_THEORY = SGP/SGP4

EPOCH          = 2026-02-24T11:43:02.333280
MEAN_MOTION    = 15.60594123
ECCENTRICITY   = .00204329
INCLINATION    = 97.2975
RA_OF_ASC_NODE = 58.4185
ARG_OF_PERICENTER = 133.5559
MEAN_ANOMALY   = 226.7399

EPHEMERIS_TYPE = 0
CLASSIFICATION_TYPE = U
NORAD_CAT_ID   = 54039
ELEMENT_SET_NO = 999
REV_AT_EPOCH   = 18831
BSTAR          = .47003959E-3
MEAN_MOTION_DOT = .39236E-3
MEAN_MOTION_DDOT = 0

CCSDS_OMM_VERS = 2.0
CREATION_DATE  = 
ORIGINATOR     = 

OBJECT_NAME    = GSLV R/B
OBJECT_ID      = 2022-138AN
CENTER_NAME    = EARTH
REF_FRAME      = TEME
TIME_SYSTEM    = UTC
MEAN_ELEMENT_THEORY = SGP/SGP4

EPOCH          = 2026-02-24T08:22:49.100160
MEAN_MOTION    = 14.96664165
ECCENTRICITY   = .00211054
INCLINATION    = 87.3878
RA_OF_ASC_NODE = 170.8260
ARG_OF_PERICENTER = 194.1031
MEAN_ANOMALY   = 165.9614

EPHEMERIS_TYPE = 0
CLASSIFICATION_TYPE = U
NORAD_CAT_ID   = 54149
ELEMENT_SET_NO = 999
REV_AT_EPOCH   = 18193
BSTAR          = .28253812E-3
MEAN_MOTION_DOT = .3264E-4
MEAN_MOTION_DDOT = 0

CCSDS_OMM_VERS = 2.0
CREATION_DATE  = 
ORIGINATOR     = 

OBJECT_NAME    = XRISM
OBJECT_ID      = 2023-137A
CENTER_NAME    = EARTH
REF_FRAME      = TEME
TIME_SYSTEM    = UTC
MEAN_ELEMENT_THEORY = SGP/SGP4

EPOCH          = 2026-02-24T13:32:49.471872
MEAN_MOTION    = 15.11320203
ECCENTRICITY   = .00083268
INCLINATION    = 31.0036
RA_OF_ASC_NODE = 8.5443
ARG_OF_PERICENTER = 267.7718
MEAN_ANOMALY   = 92.1967

EPHEMERIS_TYPE = 0
CLASSIFICATION_TYPE = U
NORAD_CAT_ID   = 57800
ELEMENT_SET_NO = 999
REV_AT_EPOCH   = 13580
BSTAR          = .34386621E-3
MEAN_MOTION_DOT = .604E-4
MEAN_MOTION_DDOT = 0

CCSDS_OMM_VERS = 2.0
CREATION_DATE  = 
ORIGINATOR     = 

OBJECT_NAME    = ACS3
OBJECT_ID      = 2024-077B
CENTER_NAME    = EARTH
REF_FRAME      = TEME
TIME_SYSTEM    = UTC
MEAN_ELEMENT_THEORY = SGP/SGP4

EPOCH          = 2026-02-24T14:32:56.397984
MEAN_MOTION    = 13.88988446
ECCENTRICITY   = .0051455
INCLINATION    = 97.2136
RA_OF_ASC_NODE = 359.6603
ARG_OF_PERICENTER = 113.5156
MEAN_ANOMALY   = 247.1426

EPHEMERIS_TYPE = 0
CLASSIFICATION_TYPE = U
NORAD_CAT_ID   = 59588
ELEMENT_SET_NO = 999
REV_AT_EPOCH   = 9238
BSTAR          = .14690546E-1
MEAN_MOTION_DOT = .17994E-3
MEAN_MOTION_DDOT = 0

CCSDS_OMM_VERS = 2.0
CREATION_DATE  = 
ORIGINATOR     = 

OBJECT_NAME    = SZ-21 MODULE
OBJECT_ID      = 2025-246C
CENTER_NAME    = EARTH
REF_FRAME      = TEME
TIME_SYSTEM    = UTC
MEAN_ELEMENT_THEORY = SGP/SGP4

EPOCH          = 2026-02-24T15:13:34.084128
MEAN_MOTION    = 15.67459046
ECCENTRICITY   = .00014834
INCLINATION    = 41.4748
RA_OF_ASC_NODE = 283.6611
ARG_OF_PERICENTER = 290.2519
MEAN_ANOMALY   = 69.8163

EPHEMERIS_TYPE = 0
CLASSIFICATION_TYPE = U
NORAD_CAT_ID   = 66515
ELEMENT_SET_NO = 999
REV_AT_EPOCH   = 1602
BSTAR          = .29807143E-3
MEAN_MOTION_DOT = .33057E-3
MEAN_MOTION_DDOT = 0

